start=new Date('2022-07-09T00:00:00.000Z').valueOf();
sats=[{"PERIAPSIS":"545.912","CENTER_NAME":"EARTH","DECAY_DATE":null,"REF_FRAME":"TEME","TLE_LINE2":"2 46794  53.0541 216.7269 0001851  55.9122 304.2042 15.06406453 94723","OBJECT_TYPE":"PAYLOAD","INCLINATION":"53.0541","ECCENTRICITY":"0.00018510","MEAN_MOTION_DDOT":"0.0000000000000","MEAN_ANOMALY":"304.2042","ELEMENT_SET_NO":"999","FILE":"3510087","EPHEMERIS_TYPE":"0","PERIOD":"95.592","EPOCH":"2022-07-08T18:40:19.547328","MEAN_MOTION_DOT":"0.00001450","GP_ID":"207694297","RA_OF_ASC_NODE":"216.7269","CLASSIFICATION_TYPE":"U","OBJECT_NAME":"STARLINK-1942","APOAPSIS":"548.476","MEAN_MOTION":"15.06406453","SITE":"AFETR","TLE_LINE1":"1 46794U 20074BH  22189.77800402  .00001450  00000-0  11618-3 0  9993","OBJECT_ID":"2020-074BH","BSTAR":"0.00011618000000","MEAN_ELEMENT_THEORY":"SGP4","REV_AT_EPOCH":"9472","NORAD_CAT_ID":"46794","RCS_SIZE":"LARGE","TIME_SYSTEM":"UTC","SEMIMAJOR_AXIS":"6925.329","COUNTRY_CODE":"US","ARG_OF_PERICENTER":"55.9122","LAUNCH_DATE":"2020-10-24"},{"BSTAR":"-0.00003114400000","MEAN_ELEMENT_THEORY":"SGP4","SITE":"AFETR","TLE_LINE1":"1 46796U 20074BK  22189.75313765 -.00000746  00000-0 -31144-4 0  9990","OBJECT_ID":"2020-074BK","APOAPSIS":"548.532","MEAN_MOTION":"15.06398386","OBJECT_NAME":"STARLINK-1944","COUNTRY_CODE":"US","LAUNCH_DATE":"2020-10-24","ARG_OF_PERICENTER":"52.3883","TIME_SYSTEM":"UTC","SEMIMAJOR_AXIS":"6925.354","REV_AT_EPOCH":"9485","NORAD_CAT_ID":"46796","RCS_SIZE":"LARGE","INCLINATION":"53.0531","MEAN_MOTION_DDOT":"0.0000000000000","ECCENTRICITY":"0.00018970","TLE_LINE2":"2 46796  53.0531 206.8409 0001897  52.3883 307.7278 15.06398386 94853","OBJECT_TYPE":"PAYLOAD","REF_FRAME":"TEME","CENTER_NAME":"EARTH","PERIAPSIS":"545.905","DECAY_DATE":null,"EPOCH":"2022-07-08T18:04:31.092960","CLASSIFICATION_TYPE":"U","RA_OF_ASC_NODE":"206.8409","MEAN_MOTION_DOT":"-0.00000746","GP_ID":"207694548","EPHEMERIS_TYPE":"0","PERIOD":"95.592","FILE":"3510087","ELEMENT_SET_NO":"999","MEAN_ANOMALY":"307.7278"},{"EPHEMERIS_TYPE":"0","PERIOD":"95.591","EPOCH":"2022-07-08T14:03:39.379680","GP_ID":"207695299","MEAN_MOTION_DOT":"0.00004487","RA_OF_ASC_NODE":"232.5924","CLASSIFICATION_TYPE":"U","MEAN_ANOMALY":"295.5061","ELEMENT_SET_NO":"999","FILE":"3510087","TLE_LINE2":"2 46798  53.0538 232.5924 0001375  64.6070 295.5061 15.06411194 94481","OBJECT_TYPE":"PAYLOAD","INCLINATION":"53.0538","ECCENTRICITY":"0.00013750","MEAN_MOTION_DDOT":"0.0000000000000","PERIAPSIS":"546.227","CENTER_NAME":"EARTH","DECAY_DATE":null,"REF_FRAME":"TEME","COUNTRY_CODE":"US","ARG_OF_PERICENTER":"64.6070","LAUNCH_DATE":"2020-10-24","REV_AT_EPOCH":"9448","NORAD_CAT_ID":"46798","RCS_SIZE":"LARGE","SEMIMAJOR_AXIS":"6925.314","TIME_SYSTEM":"UTC","SITE":"AFETR","TLE_LINE1":"1 46798U 20074BM  22189.58587245  .00004487  00000-0  31984-3 0  9994","OBJECT_ID":"2020-074BM","BSTAR":"0.00031984000000","MEAN_ELEMENT_THEORY":"SGP4","OBJECT_NAME":"STARLINK-1948","APOAPSIS":"548.131","MEAN_MOTION":"15.06411194"},{"ELEMENT_SET_NO":"999","MEAN_ANOMALY":"279.2314","FILE":"3510087","PERIOD":"95.592","EPHEMERIS_TYPE":"0","RA_OF_ASC_NODE":"196.8791","CLASSIFICATION_TYPE":"U","GP_ID":"207694334","MEAN_MOTION_DOT":"0.00001505","EPOCH":"2022-07-08T17:44:37.211712","DECAY_DATE":null,"CENTER_NAME":"EARTH","PERIAPSIS":"546.381","REF_FRAME":"TEME","OBJECT_TYPE":"PAYLOAD","TLE_LINE2":"2 47122  53.0535 196.8791 0001195  80.8810 279.2314 15.06401656 89875","MEAN_MOTION_DDOT":"0.0000000000000","ECCENTRICITY":"0.00011950","INCLINATION":"53.0535","NORAD_CAT_ID":"47122","RCS_SIZE":"LARGE","REV_AT_EPOCH":"8987","TIME_SYSTEM":"UTC","SEMIMAJOR_AXIS":"6925.343","LAUNCH_DATE":"2020-11-25","ARG_OF_PERICENTER":"80.8810","COUNTRY_CODE":"US","OBJECT_NAME":"STARLINK-1777","MEAN_MOTION":"15.06401656","APOAPSIS":"548.036","OBJECT_ID":"2020-088A","TLE_LINE1":"1 47122U 20088A   22189.73931958  .00001505  00000-0  11991-3 0  9996","SITE":"AFETR","MEAN_ELEMENT_THEORY":"SGP4","BSTAR":"0.00011991000000"},{"TIME_SYSTEM":"UTC","SEMIMAJOR_AXIS":"6925.360","REV_AT_EPOCH":"8980","RCS_SIZE":"LARGE","NORAD_CAT_ID":"47124","COUNTRY_CODE":"US","ARG_OF_PERICENTER":"75.2171","LAUNCH_DATE":"2020-11-25","APOAPSIS":"548.245","MEAN_MOTION":"15.06396155","OBJECT_NAME":"STARLINK-1785","BSTAR":"0.00010830000000","MEAN_ELEMENT_THEORY":"SGP4","SITE":"AFETR","OBJECT_ID":"2020-088C","TLE_LINE1":"1 47124U 20088C   22189.72597359  .00001332  00000-0  10830-3 0  9999","FILE":"3510087","ELEMENT_SET_NO":"999","MEAN_ANOMALY":"284.8981","EPOCH":"2022-07-08T17:25:24.118176","MEAN_MOTION_DOT":"0.00001332","GP_ID":"207694585","CLASSIFICATION_TYPE":"U","RA_OF_ASC_NODE":"201.9618","EPHEMERIS_TYPE":"0","PERIOD":"95.592","REF_FRAME":"TEME","PERIAPSIS":"546.206","CENTER_NAME":"EARTH","DECAY_DATE":null,"INCLINATION":"53.0537","ECCENTRICITY":"0.00014720","MEAN_MOTION_DDOT":"0.0000000000000","TLE_LINE2":"2 47124  53.0537 201.9618 0001472  75.2171 284.8981 15.06396155 89803","OBJECT_TYPE":"PAYLOAD"},{"EPOCH":"2022-07-08T10:24:03.756384","MEAN_MOTION_DOT":"0.00001063","GP_ID":"207665921","RA_OF_ASC_NODE":"198.2534","CLASSIFICATION_TYPE":"U","EPHEMERIS_TYPE":"0","PERIOD":"95.592","FILE":"3509949","ELEMENT_SET_NO":"999","MEAN_ANOMALY":"303.2567","INCLINATION":"53.0533","ECCENTRICITY":"0.00016210","MEAN_MOTION_DDOT":"0.0000000000000","TLE_LINE2":"2 47126  53.0533 198.2534 0001621  56.8577 303.2567 15.06406463 89830","OBJECT_TYPE":"PAYLOAD","REF_FRAME":"TEME","PERIAPSIS":"546.071","CENTER_NAME":"EARTH","DECAY_DATE":null,"COUNTRY_CODE":"US","ARG_OF_PERICENTER":"56.8577","LAUNCH_DATE":"2020-11-25","SEMIMAJOR_AXIS":"6925.329","TIME_SYSTEM":"UTC","REV_AT_EPOCH":"8983","RCS_SIZE":"LARGE","NORAD_CAT_ID":"47126","BSTAR":"0.00009022100000","MEAN_ELEMENT_THEORY":"SGP4","SITE":"AFETR","TLE_LINE1":"1 47126U 20088E   22189.43337681  .00001063  00000-0  90221-4 0  9993","OBJECT_ID":"2020-088E","APOAPSIS":"548.316","MEAN_MOTION":"15.06406463","OBJECT_NAME":"STARLINK-1812"},{"APOAPSIS":"548.471","MEAN_MOTION":"15.06413540","OBJECT_NAME":"STARLINK-1837","BSTAR":"0.00028286000000","MEAN_ELEMENT_THEORY":"SGP4","SITE":"AFETR","OBJECT_ID":"2020-088G","TLE_LINE1":"1 47128U 20088G   22189.78907091  .00003936  00000-0  28286-3 0  9993","SEMIMAJOR_AXIS":"6925.307","TIME_SYSTEM":"UTC","REV_AT_EPOCH":"9016","RCS_SIZE":"LARGE","NORAD_CAT_ID":"47128","COUNTRY_CODE":"US","ARG_OF_PERICENTER":"64.3101","LAUNCH_DATE":"2020-11-25","REF_FRAME":"TEME","PERIAPSIS":"545.874","CENTER_NAME":"EARTH","DECAY_DATE":null,"INCLINATION":"53.0522","ECCENTRICITY":"0.00018750","MEAN_MOTION_DDOT":"0.0000000000000","TLE_LINE2":"2 47128  53.0522 176.6669 0001875  64.3101 295.8082 15.06413540 90167","OBJECT_TYPE":"PAYLOAD","FILE":"3510087","MEAN_ANOMALY":"295.8082","ELEMENT_SET_NO":"999","EPOCH":"2022-07-08T18:56:15.726624","MEAN_MOTION_DOT":"0.00003936","GP_ID":"207693584","CLASSIFICATION_TYPE":"U","RA_OF_ASC_NODE":"176.6669","EPHEMERIS_TYPE":"0","PERIOD":"95.591"},{"OBJECT_NAME":"STARLINK-1838","MEAN_MOTION":"15.06411937","APOAPSIS":"548.520","OBJECT_ID":"2020-088H","TLE_LINE1":"1 47129U 20088H   22189.68492727  .00003628  00000-0  26225-3 0  9997","SITE":"AFETR","MEAN_ELEMENT_THEORY":"SGP4","BSTAR":"0.00026225000000","RCS_SIZE":"LARGE","NORAD_CAT_ID":"47129","REV_AT_EPOCH":"9001","TIME_SYSTEM":"UTC","SEMIMAJOR_AXIS":"6925.312","LAUNCH_DATE":"2020-11-25","ARG_OF_PERICENTER":"56.4456","COUNTRY_CODE":"US","DECAY_DATE":null,"CENTER_NAME":"EARTH","PERIAPSIS":"545.833","REF_FRAME":"TEME","OBJECT_TYPE":"PAYLOAD","TLE_LINE2":"2 47129  53.0546 187.1355 0001940  56.4456 303.6718 15.06411937 90017","MEAN_MOTION_DDOT":"0.0000000000000","ECCENTRICITY":"0.00019400","INCLINATION":"53.0546","ELEMENT_SET_NO":"999","MEAN_ANOMALY":"303.6718","FILE":"3510087","PERIOD":"95.591","EPHEMERIS_TYPE":"0","RA_OF_ASC_NODE":"187.1355","CLASSIFICATION_TYPE":"U","GP_ID":"207693834","MEAN_MOTION_DOT":"0.00003628","EPOCH":"2022-07-08T16:26:17.716128"},{"GP_ID":"207665170","MEAN_MOTION_DOT":"0.00001127","CLASSIFICATION_TYPE":"U","RA_OF_ASC_NODE":"208.0934","EPOCH":"2022-07-08T11:15:51.036480","PERIOD":"95.592","EPHEMERIS_TYPE":"0","FILE":"3509949","ELEMENT_SET_NO":"999","MEAN_ANOMALY":"305.8469","ECCENTRICITY":"0.00020130","MEAN_MOTION_DDOT":"0.0000000000000","INCLINATION":"53.0537","OBJECT_TYPE":"PAYLOAD","TLE_LINE2":"2 47130  53.0537 208.0934 0002013  54.2707 305.8469 15.06394476 89699","REF_FRAME":"TEME","DECAY_DATE":null,"PERIAPSIS":"545.836","CENTER_NAME":"EARTH","ARG_OF_PERICENTER":"54.2707","LAUNCH_DATE":"2020-11-25","COUNTRY_CODE":"US","SEMIMAJOR_AXIS":"6925.365","TIME_SYSTEM":"UTC","RCS_SIZE":"LARGE","NORAD_CAT_ID":"47130","REV_AT_EPOCH":"8969","MEAN_ELEMENT_THEORY":"SGP4","BSTAR":"0.00009458500000","OBJECT_ID":"2020-088J","TLE_LINE1":"1 47130U 20088J   22189.46934070  .00001127  00000-0  94585-4 0  9994","SITE":"AFETR","MEAN_MOTION":"15.06394476","APOAPSIS":"548.625","OBJECT_NAME":"STARLINK-1839"},{"FILE":"3509949","ELEMENT_SET_NO":"999","MEAN_ANOMALY":"288.3212","EPOCH":"2022-07-08T09:53:32.553312","CLASSIFICATION_TYPE":"U","RA_OF_ASC_NODE":"188.3577","GP_ID":"207665421","MEAN_MOTION_DOT":"0.00001281","EPHEMERIS_TYPE":"0","PERIOD":"95.592","REF_FRAME":"TEME","CENTER_NAME":"EARTH","PERIAPSIS":"546.189","DECAY_DATE":null,"INCLINATION":"53.0550","MEAN_MOTION_DDOT":"0.0000000000000","ECCENTRICITY":"0.00014870","TLE_LINE2":"2 47133  53.0550 188.3577 0001487  71.7939 288.3212 15.06398139 89966","OBJECT_TYPE":"PAYLOAD","TIME_SYSTEM":"UTC","SEMIMAJOR_AXIS":"6925.354","REV_AT_EPOCH":"8996","RCS_SIZE":"LARGE","NORAD_CAT_ID":"47133","COUNTRY_CODE":"US","LAUNCH_DATE":"2020-11-25","ARG_OF_PERICENTER":"71.7939","APOAPSIS":"548.249","MEAN_MOTION":"15.06398139","OBJECT_NAME":"STARLINK-1843","BSTAR":"0.00010487000000","MEAN_ELEMENT_THEORY":"SGP4","SITE":"AFETR","TLE_LINE1":"1 47133U 20088M   22189.41218233  .00001281  00000-0  10487-3 0  9997","OBJECT_ID":"2020-088M"}];
